#aV2019  1 13  0  0  0.00000000      96 DD+AD WGS84 FIT  NGA
## 2036      0.00000000   900.00000000 58496 0.0000000000000
+   31     1  2  3  5  6  7  8  9 10 11 12 13 14 15 16 17 18
+         19 20 21 22 23 24 25 26 27 28 29 30 31 32  0  0  0
+          0  0  0  0  0  0  0  0  0  0  0  0  0  0  0  0  0
+          0  0  0  0  0  0  0  0  0  0  0  0  0  0  0  0  0
+          0  0  0  0  0  0  0  0  0  0  0  0  0  0  0  0  0
++         2  2  2  2  2  2  2  2  2  2  2  2  2  2  2  2  2
++         2  2  2  2  2  2  2  2  2  2  2  2  2  2  0  0  0
++         0  0  0  0  0  0  0  0  0  0  0  0  0  0  0  0  0
++         0  0  0  0  0  0  0  0  0  0  0  0  0  0  0  0  0
++         0  0  0  0  0  0  0  0  0  0  0  0  0  0  0  0  0
%c cc cc ccc ccc cccc cccc cccc cccc ccccc ccccc ccccc ccccc
%c cc cc ccc ccc cccc cccc cccc cccc ccccc ccccc ccccc ccccc
%f  0.0000000  0.000000000  0.00000000000  0.000000000000000
%f  0.0000000  0.000000000  0.00000000000  0.000000000000000
%i    0    0    0    0      0      0      0      0         0
%i    0    0    0    0      0      0      0      0         0
/*      NGA, ST. LOUIS,MO.                                  
/*   EPHEMERIS COMPUTED FROM 2 DAYS OF DATA                 
/*   EPOCHA v3 LONG-TERM PREDICTOR                          
/*   G1762 IERS2010 SATAF SATCOM                            
*  2019  1 13 16 45  0.00000000
P  1 -14997.886459   1283.756434  21735.088532   -144.686344               P   P
V  1  -7647.775776 -26871.575958  -3362.802299     -0.061460                    
P  2  14374.857813  20116.091905  -9363.397961   -112.175124               P   P
V  2   1744.156883  12868.688162  28325.669384     -0.102205                    
P  3 -21291.071958  10240.575713  12025.319111    177.067368               P   P
V  3   8858.037607 -12764.154311  26536.273575      0.028287                    
P  5  13169.683291   8481.197352 -21581.076009      0.785716               P   P
V  5 -18057.197267  20275.215133  -2869.484011      0.001740                    
P  6   6729.091675  25649.832699   1323.289178    297.597946               P   P
V  6  -2785.286854   -868.998812  31997.847480     -0.075375                    
P  7  -8762.414222  16654.380016 -18311.115490     52.386406               P   P
V  7  -8229.861145 -22551.596501 -16810.293871     -0.070142                    
P  8 -26018.129792  -5823.886948     79.439810   -128.586792               P   P
V  8    484.500689  -2326.899407 -31832.708087     -0.004969                    
P  9 -16264.851052   9886.082158 -18577.767591    472.357172               P   P
V  9 -22589.272224  -6713.947432  16236.537334     -0.040680                    
P 10   7439.124466 -21563.968058  13490.413118    136.230304               P   P
V 10  13425.046588 -10874.871101 -25059.626632     -0.063486                    
P 11 -19668.699810  -2100.099514  17087.882001   -675.909549               P   P
V 11 -13173.674459 -19084.605993 -17208.615877      0.050812                    
P 12  21220.814026  -6869.399248  14080.463899    276.665129               P   P
V 12 -12205.413028  13679.242797  24896.965259     -0.030376                    
P 13  22380.719101  12953.745656  -6256.959577    -78.440620               P   P
V 13  -8143.588716   -425.324857 -30556.399876      0.012054                    
P 14 -10400.770295 -16750.319379  18182.153491    -93.236176               P   P
V 14  21755.357313   5580.580104  17708.989932      0.005384                    
P 15  26569.456889   2250.493249   2164.930018   -332.402206               P   P
V 15   2491.063876   3918.411313 -30593.706940      0.015007                    
P 16 -12284.493267  -8692.217318 -22088.536639    -12.497477               P   P
V 16  20539.965717 -18333.921498  -3820.541074     -0.021864                    
P 17    218.380814  15385.604493  22071.654608     -5.396119               P   P
V 17 -25932.648536  -7401.473509   5419.862608      0.049212                    
P 18 -16749.902198  -9707.709758  17768.512930     15.447049               P   P
V 18  -6042.789426 -22780.265903 -17528.610240      0.037430                    
P 19  10301.721692  16283.885732  17939.878878   -363.759056               P   P
V 19 -22523.218857  -6359.917470  18512.029942      0.038854                    
P 20  13417.117835 -22517.375813   3700.062825    521.085909               P   P
V 20   6013.861448  -1590.814133 -30667.495331      0.004234                    
P 21   5211.060612 -19859.285233 -16092.548451   -269.813688               P   P
V 21   9552.815614  19910.402065 -20379.136967      0.067799                    
P 22 -19864.438746   3357.093391  17518.169510   -621.959958               P   P
V 22  12303.583048 -18279.993014  17735.982992     -0.088998                    
P 23 -24118.197114   2779.060102 -10931.026773   -200.657108               P   P
V 23 -13314.391753  -5701.495282  26753.850568      0.011291                    
P 24  16822.376226   3401.615970  20201.075285    -60.214262               P   P
V 24   7598.098609  24856.709167 -10115.630258      0.008876                    
P 25  20102.666921 -16451.533559   4651.652597   -705.440448               P   P
V 25  -2359.030130   6299.895065  31434.718595     -0.055923                    
P 26  -4491.334483 -16497.368348 -20293.783408     95.391391               P   P
V 26  18184.586673 -18357.491584  11070.333905      0.106634                    
P 27 -21954.970938 -11846.547376  -9604.305896    -48.373758               P   P
V 27  12055.838920    999.629418 -28774.264418     -0.065340                    
P 28 -10368.124792  20949.553281  13310.638468    761.886956               P   P
V 28 -12820.365509   9381.181630 -25888.755409      0.012687                    
P 29  19503.502371  -5845.072335 -17073.233187    294.164671               P   P
V 29  20248.078174   7599.701180  20553.218691     -0.082630                    
P 30  -1491.967590  24446.970863 -10040.444326    -35.329685               P   P
V 30  -6140.739064 -11734.090837 -27786.524121     -0.062322                    
P 31  -7958.971348 -25017.662514  -1864.335991     66.021943               P   P
V 31   2457.535896  -3142.561316  31935.090071     -0.026852                    
P 32  -3433.638778 -15992.912265  20984.182573   -276.396601               P   P
V 32  26023.202107   5304.155172   8213.749466      0.171331                    
EOF
